SIRION PATHFINDER-2     
1 43759U 18099B   26158.66767839  .00005621  00000+0  30887-3 0  9991
2 43759  97.4256 207.9522 0007937 343.0785  17.0181 15.14467832411180
CORVUS BC4              
1 43767U 18099K   26158.66135707  .00005383  00000+0  31320-3 0  9991
2 43767  97.4069 201.9209 0009214  43.4590 316.7365 15.12420626410968
M2 PATHFINDER           
1 45727U 20037E   26158.47059127  .00003235  00000+0  23446-3 0  9998
2 45727  97.8160 349.5929 0011555 179.3354 180.7889 15.04635174324037
NETSAT-4                
1 46504U 20068U   26158.53131212  .00018205  00000+0  40714-3 0  9999
2 46504  97.8612 165.9983 0005131  17.0462 343.0956 15.43543393314283
NETSAT-3                
1 46505U 20068V   26158.53012715  .00018249  00000+0  42476-3 0  9991
2 46505  97.8661 164.2259 0005514  34.7991 325.3614 15.42345848314192
NETSAT-1                
1 46506U 20068W   26158.54982942  .00013319  00000+0  40179-3 0  9992
2 46506  97.8751 158.6913 0006106  59.3065 300.8777 15.34413603313823
NETSAT-2                
1 46507U 20068X   26158.26069587  .00022906  00000+0  47758-3 0  9995
2 46507  97.8622 165.5652 0004765  53.4495 306.7190 15.45571255314206
GREENCUBE (IO-117)      
1 53109U 22080E   26152.46502029 -.00000003  00000+0  00000+0 0  9996
2 53109  70.1435 303.7143 0008869 293.3663  66.6064  6.42583280 91055
SITRO-AIS 5 (KATYS)     
1 57176U 23091L   26158.84445100  .00012696  00000+0  44889-3 0  9998
2 57176  97.5061 222.6564 0012662 132.3020 227.9295 15.29241490162913
SITRO-AIS 6 (CHIRKIN)   
1 57192U 23091AC  26158.86754192  .00010884  00000+0  42807-3 0  9997
2 57192  97.5068 221.8480 0012913 135.3545 224.8735 15.25757620162862
SITRO-AIS 8 (ANOKHIN)   
1 57193U 23091AD  26158.81236509  .00013577  00000+0  44244-3 0  9999
2 57193  97.5057 224.1749 0011811 128.6196 231.6105 15.31879331163014
SITRO-AIS 7 (FARTUSHNIY)
1 57194U 23091AE  26158.73760240  .00010513  00000+0  41749-3 0  9999
2 57194  97.5066 221.5474 0012735 136.7983 223.4256 15.25446984162833
SITRO-AIS 10 (BURDAEV)  
1 57199U 23091AK  26158.81800909  .00020665  00000+0  54917-3 0  9990
2 57199  97.5081 229.1391 0007961 108.0173 252.1940 15.38254173163320
SITRO-AIS 9 (SHCHUKIN)  
1 57201U 23091AM  26158.84146647  .00020060  00000+0  54144-3 0  9990
2 57201  97.5079 228.9002 0008184 108.0504 252.1632 15.37778524163310
SITRO-AIS 12 (SMIRENNIY)
1 57204U 23091AQ  26158.76879208  .00021232  00000+0  56759-3 0  9996
2 57204  97.5092 229.2871 0007782 103.1958 257.0155 15.38067162163323
SITRO-AIS 11 (SHEFFER)  
1 57208U 23091AU  26158.84982997  .00020800  00000+0  54865-3 0  9995
2 57208  97.5089 229.6108 0007694 103.0106 257.1998 15.38484843163354
SITRO-AIS 25            
1 59066U 24039R   26158.86222286  .00004234  00000+0  33035-3 0  9991
2 59066  95.3908 228.6848 0144666   1.5368 358.6272 14.93464414123335
SITRO-AIS 26            
1 59067U 24039S   26158.86232663  .00004239  00000+0  33222-3 0  9995
2 59067  95.3908 228.5844 0145028   2.1099 358.0706 14.93261405123322
SITRO-AIS 27            
1 59068U 24039T   26158.83517836  .00003525  00000+0  27429-3 0  9990
2 59068  95.3911 228.8332 0144113   0.8450 359.2991 14.93679717123342
SITRO-AIS 28            
1 59071U 24039U   26158.87982515  .00004356  00000+0  33810-3 0  9992
2 59071  95.3914 228.9106 0143943   0.5854 359.5513 14.93715475123350
GRBBETA                 
1 60237U 24128C   26158.79556698  .00004941  00000+0  33997-3 0  9993
2 60237  61.9897 249.2153 0041910 132.7105 227.7529 15.06577038104854
OOV-CUBE (TUBSAT-30)    
1 60240U 24128F   26158.60681561  .00003037  00000+0  23682-3 0  9990
2 60240  61.9951 258.9782 0045839 131.6084 228.8949 15.02733323104677
ROBUSTA-3A (MEDITERRAN*)
1 60243U 24128J   26158.80778983  .00008283  00000+0  48794-3 0  9999
2 60243  61.9857 241.4101 0042553 126.1818 234.3225 15.11564301105006
LASARSAT                
1 62391U 24247Q   26158.73691323  .00034646  00000+0  70312-3 0  9994
2 62391  44.9756 315.2967 0008334 279.4178  80.5769 15.45777785 81850
CROCUBE                 
1 62394U 24247T   26158.68150948  .00038979  00000+0  74212-3 0  9990
2 62394  44.9730 313.0923 0008194 282.2931  77.7042 15.47580079 81870
FORESAIL-1 PRIME        
1 66778U 25276DS  26158.70613013  .00005419  00000+0  26506-3 0  9999
2 66778  97.4198 232.1512 0003684 123.1787 236.9801 15.18616677 28962
KNACKSAT-2              
1 67683U 98067XZ  26158.80293920  .00048726  00000+0  61258-3 0  9996
2 67683  51.6303 341.6515 0010362 174.2130 185.8984 15.59121118 18810
