OBJECT_NAME,OBJECT_ID,EPOCH,MEAN_MOTION,ECCENTRICITY,INCLINATION,RA_OF_ASC_NODE,ARG_OF_PERICENTER,MEAN_ANOMALY,EPHEMERIS_TYPE,CLASSIFICATION_TYPE,NORAD_CAT_ID,ELEMENT_SET_NO,REV_AT_EPOCH,BSTAR,MEAN_MOTION_DOT,MEAN_MOTION_DDOT
SIRION PATHFINDER-2,2018-099B,2026-06-07T16:01:27.412896,15.14467832,.0007937,97.4256,207.9522,343.0785,17.0181,0,U,43759,999,41118,.30887E-3,.5621E-4,0
CORVUS BC4,2018-099K,2026-06-07T15:52:21.250848,15.12420626,.0009214,97.4069,201.9209,43.4590,316.7365,0,U,43767,999,41096,.3132E-3,.5383E-4,0
M2 PATHFINDER,2020-037E,2026-06-07T11:17:39.085728,15.04635174,.0011555,97.8160,349.5929,179.3354,180.7889,0,U,45727,999,32403,.23446E-3,.3235E-4,0
NETSAT-4,2020-068U,2026-06-07T12:45:05.367168,15.43543393,.0005131,97.8612,165.9983,17.0462,343.0956,0,U,46504,999,31428,.40714E-3,.18205E-3,0
NETSAT-3,2020-068V,2026-06-07T12:43:22.985760,15.42345848,.0005514,97.8661,164.2259,34.7991,325.3614,0,U,46505,999,31419,.42476E-3,.18249E-3,0
NETSAT-1,2020-068W,2026-06-07T13:11:45.261888,15.34413603,.0006106,97.8751,158.6913,59.3065,300.8777,0,U,46506,999,31382,.40179E-3,.13319E-3,0
NETSAT-2,2020-068X,2026-06-07T06:15:24.123168,15.45571255,.0004765,97.8622,165.5652,53.4495,306.7190,0,U,46507,999,31420,.47758E-3,.22906E-3,0
GREENCUBE (IO-117),2022-080E,2026-06-01T11:09:37.753056,6.42583280,.00088692,70.1435,303.7143,293.3663,66.6064,0,U,53109,999,9105,0,-.3E-7,0
SITRO-AIS 5 (KATYS),2023-091L,2026-06-07T20:16:00.566400,15.29241490,.0012662,97.5061,222.6564,132.3020,227.9295,0,U,57176,999,16291,.44889E-3,.12696E-3,0
SITRO-AIS 6 (CHIRKIN),2023-091AC,2026-06-07T20:49:15.621888,15.25757620,.0012913,97.5068,221.8480,135.3545,224.8735,0,U,57192,999,16286,.42807E-3,.10884E-3,0
SITRO-AIS 8 (ANOKHIN),2023-091AD,2026-06-07T19:29:48.343776,15.31879331,.0011811,97.5057,224.1749,128.6196,231.6105,0,U,57193,999,16301,.44244E-3,.13577E-3,0
SITRO-AIS 7 (FARTUSHNIY),2023-091AE,2026-06-07T17:42:08.847360,15.25446984,.0012735,97.5066,221.5474,136.7983,223.4256,0,U,57194,999,16283,.41749E-3,.10513E-3,0
SITRO-AIS 10 (BURDAEV),2023-091AK,2026-06-07T19:37:55.985376,15.38254173,.0007961,97.5081,229.1391,108.0173,252.1940,0,U,57199,999,16332,.54917E-3,.20665E-3,0
SITRO-AIS 9 (SHCHUKIN),2023-091AM,2026-06-07T20:11:42.703008,15.37778524,.0008184,97.5079,228.9002,108.0504,252.1632,0,U,57201,999,16331,.54144E-3,.2006E-3,0
SITRO-AIS 12 (SMIRENNIY),2023-091AQ,2026-06-07T18:27:03.635712,15.38067162,.0007782,97.5092,229.2871,103.1958,257.0155,0,U,57204,999,16332,.56759E-3,.21232E-3,0
SITRO-AIS 11 (SHEFFER),2023-091AU,2026-06-07T20:23:45.309408,15.38484843,.0007694,97.5089,229.6108,103.0106,257.1998,0,U,57208,999,16335,.54865E-3,.208E-3,0
SITRO-AIS 25,2024-039R,2026-06-07T20:41:36.055104,14.93464414,.0144666,95.3908,228.6848,1.5368,358.6272,0,U,59066,999,12333,.33035E-3,.4234E-4,0
SITRO-AIS 26,2024-039S,2026-06-07T20:41:45.020832,14.93261405,.0145028,95.3908,228.5844,2.1099,358.0706,0,U,59067,999,12332,.33222E-3,.4239E-4,0
SITRO-AIS 27,2024-039T,2026-06-07T20:02:39.410304,14.93679717,.0144113,95.3911,228.8332,0.8450,359.2991,0,U,59068,999,12334,.27429E-3,.3525E-4,0
SITRO-AIS 28,2024-039U,2026-06-07T21:06:56.892960,14.93715475,.0143943,95.3914,228.9106,0.5854,359.5513,0,U,59071,999,12335,.3381E-3,.4356E-4,0
GRBBETA,2024-128C,2026-06-07T19:05:36.987072,15.06577038,.004191,61.9897,249.2153,132.7105,227.7529,0,U,60237,999,10485,.33997E-3,.4941E-4,0
OOV-CUBE (TUBSAT-30),2024-128F,2026-06-07T14:33:48.868704,15.02733323,.0045839,61.9951,258.9782,131.6084,228.8949,0,U,60240,999,10467,.23682E-3,.3037E-4,0
ROBUSTA-3A (MEDITERRANEE),2024-128J,2026-06-07T19:23:13.041312,15.11564301,.0042553,61.9857,241.4101,126.1818,234.3225,0,U,60243,999,10500,.48794E-3,.8283E-4,0
LASARSAT,2024-247Q,2026-06-07T17:41:09.303072,15.45777785,.0008334,44.9756,315.2967,279.4178,80.5769,0,U,62391,999,8185,.70312E-3,.34646E-3,0
CROCUBE,2024-247T,2026-06-07T16:21:22.419072,15.47580079,.0008194,44.9730,313.0923,282.2931,77.7042,0,U,62394,999,8187,.74212E-3,.38979E-3,0
FORESAIL-1 PRIME,2025-276DS,2026-06-07T16:56:49.643232,15.18616677,.0003684,97.4198,232.1512,123.1787,236.9801,0,U,66778,999,2896,.26506E-3,.5419E-4,0
KNACKSAT-2,1998-067XZ,2026-06-07T19:16:13.946880,15.59121118,.0010362,51.6303,341.6515,174.2130,185.8984,0,U,67683,999,1881,.61258E-3,.48726E-3,0
